BRO-8                   
1 55011U 23001C   25202.40103764  .00005357  00000+0  18331-3 0  9992
2 55011  97.3746 261.6538 0007527 223.9214 136.1430 15.30645285141323
CONNECTA T1.2           
1 55012U 23001D   25202.12637718  .00008457  00000+0  24587-3 0  9997
2 55012  97.3767 265.3600 0007632 200.8296 159.2638 15.35678930141536
BIRKELAND               
1 55015U 23001G   25202.43846095  .00006226  00000+0  19955-3 0  9999
2 55015  97.3803 265.4348 0007326 199.4143 160.6821 15.32696446141566
KSF3-B                  
1 55019U 23001L   25202.45711766  .00025003  00000+0  39675-3 0  9996
2 55019  97.3714 274.3306 0007105 115.5076 244.6913 15.53331664142188
FLOCK 4Y-7              
1 55032U 23001Z   25202.46077378  .00029649  00000+0  42105-3 0  9998
2 55032  97.3673 275.0750 0006334 158.3528 201.7996 15.56351168142266
SKYKRAFT-1C             
1 55061U 23001BE  25201.87773470  .00002502  00000+0  11209-3 0  9990
2 55061  97.3707 257.4744 0009946 227.0522 132.9880 15.22127048141035
NUSAT-32 (ALBANIA-1)    
1 55064U 23001BH  25202.40797706  .00029439  00000+0  49581-3 0  9993
2 55064  97.2305 264.2168 0007061 138.5960 221.5828 15.51633580142555
YAM-5                   
1 55076U 23001BV  25201.41895844  .00006354  00000+0  21987-3 0  9999
2 55076  97.3705 261.0688 0009942 208.9127 151.1564 15.30185706141230
GAMA-ALPHA              
1 55084U 23001CD  25202.46638911  .00034104  00000+0  52940-3 0  9991
2 55084  97.3705 272.2022 0008040 163.5039 196.6477 15.53872328142079
KSF3-D                  
1 55085U 23001CE  25202.41967697  .00085232  00000+0  91731-3 0  9992
2 55085  97.3658 275.1093 0005811 169.5548 190.5833 15.63429488142267
KSF3-A                  
1 55086U 23001CF  25202.50966717  .00019295  00000+0  31950-3 0  9998
2 55086  97.3730 274.5303 0007000 148.0219 212.1459 15.52195504142201
HUYGENS                 
1 55093U 23001CN  25202.43855159  .00006338  00000+0  20283-3 0  9996
2 55093  97.3727 265.0475 0011349 181.9801 178.1398 15.32699468141583
KUWAITSAT-1             
1 55103U 23001CY  25202.13237329  .00008668  00000+0  25577-3 0  9997
2 55103  97.3731 265.5521 0011218 185.6135 174.4984 15.35169850141572
SHARJAHSAT-1            
1 55104U 23001CZ  25202.45287579  .00009148  00000+0  26768-3 0  9992
2 55104  97.3691 264.0385 0007069 207.2494 152.8380 15.35455698141521
AAC-AIS-SAT1            
1 55107U 23001DC  25202.44788155  .00002976  00000+0  33216-3 0  9998
2 55107  97.9562 272.9023 0008733 289.5821  70.4452 14.87763308129033
ASTROCAST-0402          
1 55109U 23001DE  25202.23727669  .00005505  00000+0  24598-3 0  9994
2 55109  97.5750 286.9885 0004646 341.2524  18.8540 15.21751726 94097
ASTROCAST-0401          
1 55110U 23001DF  25201.20176992  .00005301  00000+0  23737-3 0  9997
2 55110  97.5745 285.9531 0007665 295.8651  64.1794 15.21684164140615
ASTROCAST-0403          
1 55111U 23001DG  25201.68302859  .00004419  00000+0  19790-3 0  9996
2 55111  97.5798 286.7025 0007719  69.7494 290.4571 15.21774374 94005
ASTROCAST-0404          
1 55112U 23001DH  25201.49941551  .00004841  00000+0  21650-3 0  9991
2 55112  97.5827 286.8898 0009296  84.4961 275.7335 15.21759487 93981
2023-003C               
1 55135U 23003C   25202.43136417  .00010317  00000+0  25348-3 0  9993
2 55135  97.1937 276.6367 0002166 244.2093 115.8931 15.40839187141115
2023-003E               
1 55137U 23003E   25202.47152225  .00010149  00000+0  24988-3 0  9996
2 55137  97.1874 276.0006 0003021 226.0486 134.0512 15.40779011141113
ONEWEB-0532             
1 55140U 23004A   25202.17944899  .00000097  00000+0  21601-3 0  9994
2 55140  87.9044  71.7448 0001336  81.2017 278.9266 13.17650100123990
ONEWEB-0623             
1 55164U 23004AA  25202.08832877  .00000067  00000+0  13917-3 0  9990
2 55164  87.9043  71.8002 0001145  99.1595 260.9666 13.17649474123985
ONEWEB-0624             
1 55165U 23004AB  25202.14219593  .00000082  00000+0  19129-3 0  9990
2 55165  87.8858  56.4762 0001714  85.1040 275.0285 13.12941492124630
ONEWEB-0625             
1 55166U 23004AC  25202.15412221  .00000093  00000+0  20705-3 0  9999
2 55166  87.9045  71.7840 0001936  82.5871 277.5480 13.17647720123989
ONEWEB-0626             
1 55167U 23004AD  25201.91620327  .00000028  00000+0  38550-4 0  9997
2 55167  87.9045  71.8299 0001979  65.2464 294.8874 13.17649837123959
ONEWEB-0627             
1 55168U 23004AE  25201.90439215  .00000061  00000+0  12449-3 0  9996
2 55168  87.9042  71.8343 0001193  87.5002 272.6266 13.17647705123951
ONEWEB-0628             
1 55169U 23004AF  25201.84859925 -.00000311  00000+0 -89998-3 0  9997
2 55169  87.8861  56.5236 0001271 104.5711 255.5559 13.12441167124578
ONEWEB-0629             
1 55170U 23004AG  25201.87992963  .00000016  00000+0  76897-5 0  9998
2 55170  87.9056  71.8289 0001808  93.0853 267.0485 13.17649394123954
ONEWEB-0631             
1 55171U 23004AH  25202.05196323  .00000064  00000+0  12885-3 0  9994
2 55171  87.9119  41.2152 0001532  70.6193 289.5105 13.18686199126032
ONEWEB-0709             
1 55172U 23004AJ  25202.22894126 -.00000070  00000+0 -23358-3 0  9996
2 55172  87.8814  87.0625 0002179  54.0789 306.0541 13.11414796122504
