OBJECT_NAME,OBJECT_ID,EPOCH,MEAN_MOTION,ECCENTRICITY,INCLINATION,RA_OF_ASC_NODE,ARG_OF_PERICENTER,MEAN_ANOMALY,EPHEMERIS_TYPE,CLASSIFICATION_TYPE,NORAD_CAT_ID,ELEMENT_SET_NO,REV_AT_EPOCH,BSTAR,MEAN_MOTION_DOT,MEAN_MOTION_DDOT
SKYKRAFT-1C,2023-001BE,2025-07-20T21:03:56.278080,15.22127048,0.0009946,97.3707,257.4744,227.0522,132.988,0,U,55061,999,14103,1.12E-04,2.50E-05,0
NUSAT-32 (ALBANIA-1),2023-001BH,2025-07-21T09:47:29.217984,15.5163358,0.0007061,97.2305,264.2168,138.596,221.5828,0,U,55064,999,14255,4.96E-04,2.94E-04,0
YAM-5,2023-001BV,2025-07-20T10:03:18.009216,15.30185706,0.0009942,97.3705,261.0688,208.9127,151.1564,0,U,55076,999,14123,2.20E-04,6.35E-05,0
BRO-8,2023-001C,2025-07-21T09:37:29.652096,15.30645285,0.0007527,97.3746,261.6538,223.9214,136.143,0,U,55011,999,14132,1.83E-04,5.36E-05,0
GAMA-ALPHA,2023-001CD,2025-07-21T11:11:36.019104,15.53872328,0.000804,97.3705,272.2022,163.5039,196.6477,0,U,55084,999,14207,5.29E-04,3.41E-04,0
KSF3-D,2023-001CE,2025-07-21T10:04:20.090208,15.63429488,0.0005811,97.3658,275.1093,169.5548,190.5833,0,U,55085,999,14226,9.17E-04,8.52E-04,0
KSF3-A,2023-001CF,2025-07-21T12:13:55.243488,15.52195504,0.0007,97.373,274.5303,148.0219,212.1459,0,U,55086,999,14220,3.20E-04,1.93E-04,0
HUYGENS,2023-001CN,2025-07-21T10:31:30.857376,15.32699468,0.0011349,97.3727,265.0475,181.9801,178.1398,0,U,55093,999,14158,2.03E-04,6.34E-05,0
KUWAITSAT-1,2023-001CY,2025-07-21T03:10:37.052256,15.3516985,0.0011218,97.3731,265.5521,185.6135,174.4984,0,U,55103,999,14157,2.56E-04,8.67E-05,0
SHARJAHSAT-1,2023-001CZ,2025-07-21T10:52:08.468256,15.35455698,0.0007069,97.3691,264.0385,207.2494,152.838,0,U,55104,999,14152,2.68E-04,9.15E-05,0
CONNECTA T1.2,2023-001D,2025-07-21T03:01:58.988352,15.3567893,0.0007632,97.3767,265.36,200.8296,159.2638,0,U,55012,999,14153,2.46E-04,8.46E-05,0
AAC-AIS-SAT1,2023-001DC,2025-07-21T10:44:56.965920,14.87763308,0.0008733,97.9562,272.9023,289.5821,70.4452,0,U,55107,999,12903,3.32E-04,2.98E-05,0
ASTROCAST-0402,2023-001DE,2025-07-21T05:41:40.706016,15.21751726,0.0004646,97.575,286.9885,341.2524,18.854,0,U,55109,999,9409,2.46E-04,5.51E-05,0
ASTROCAST-0401,2023-001DF,2025-07-20T04:50:32.921088,15.21684164,0.0007665,97.5745,285.9531,295.8651,64.1794,0,U,55110,999,14061,2.37E-04,5.30E-05,0
ASTROCAST-0403,2023-001DG,2025-07-20T16:23:33.670176,15.21774374,0.0007719,97.5798,286.7025,69.7494,290.4571,0,U,55111,999,9400,1.98E-04,4.42E-05,0
ASTROCAST-0404,2023-001DH,2025-07-20T11:59:09.500064,15.21759487,0.0009296,97.5827,286.8898,84.4961,275.7335,0,U,55112,999,9398,2.17E-04,4.84E-05,0
BIRKELAND,2023-001G,2025-07-21T10:31:23.026080,15.32696446,0.0007326,97.3803,265.4348,199.4143,160.6821,0,U,55015,999,14156,2.00E-04,6.23E-05,0
KSF3-B,2023-001L,2025-07-21T10:58:14.965824,15.53331664,0.0007105,97.3714,274.3306,115.5076,244.6913,0,U,55019,999,14218,3.97E-04,2.50E-04,0
FLOCK 4Y-7,2023-001Z,2025-07-21T11:03:30.854592,15.56351168,0.0006334,97.3673,275.075,158.3528,201.7996,0,U,55032,999,14226,4.21E-04,2.96E-04,0
2023-003C,2023-003C,2025-07-21T10:21:09.864288,15.40839187,0.0002166,97.1937,276.6367,244.2093,115.8931,0,U,55135,999,14111,2.53E-04,1.03E-04,0
2023-003E,2023-003E,2025-07-21T11:18:59.522400,15.40779011,0.0003021,97.1874,276.0006,226.0486,134.0512,0,U,55137,999,14111,2.50E-04,1.01E-04,0
ONEWEB-0532,2023-004A,2025-07-21T04:18:24.392736,13.176501,0.0001336,87.9044,71.7448,81.2017,278.9266,0,U,55140,999,12399,2.16E-04,9.70E-07,0
ONEWEB-0623,2023-004AA,2025-07-21T02:07:11.605728,13.17649474,0.0001145,87.9043,71.8002,99.1595,260.9666,0,U,55164,999,12398,1.39E-04,6.70E-07,0
ONEWEB-0624,2023-004AB,2025-07-21T03:24:45.728352,13.12941492,0.0001714,87.8858,56.4762,85.104,275.0285,0,U,55165,999,12463,1.91E-04,8.20E-07,0
ONEWEB-0625,2023-004AC,2025-07-21T03:41:56.158944,13.1764772,0.0001936,87.9045,71.784,82.5871,277.548,0,U,55166,999,12398,2.07E-04,9.30E-07,0
ONEWEB-0626,2023-004AD,2025-07-20T21:59:19.962528,13.17649837,0.0001979,87.9045,71.8299,65.2464,294.8874,0,U,55167,999,12395,3.86E-05,2.80E-07,0
ONEWEB-0627,2023-004AE,2025-07-20T21:42:19.481760,13.17647705,0.0001193,87.9042,71.8343,87.5002,272.6266,0,U,55168,999,12395,1.24E-04,6.10E-07,0
ONEWEB-0628,2023-004AF,2025-07-20T20:21:58.975200,13.12441167,0.0001271,87.8861,56.5236,104.5711,255.5559,0,U,55169,999,12457,-9.00E-04,-3.11E-06,0
ONEWEB-0629,2023-004AG,2025-07-20T21:07:05.920032,13.17649394,0.0001808,87.9056,71.8289,93.0853,267.0485,0,U,55170,999,12395,7.69E-06,1.60E-07,0
ONEWEB-0631,2023-004AH,2025-07-21T01:14:49.623072,13.18686199,0.0001532,87.9119,41.2152,70.6193,289.5105,0,U,55171,999,12603,1.29E-04,6.40E-07,0
ONEWEB-0709,2023-004AJ,2025-07-21T05:29:40.524864,13.11414796,0.0002179,87.8814,87.0625,54.0789,306.0541,0,U,55172,999,12250,-2.34E-04,-7.00E-07,0
